{
    "links": {
        "self": "http://www.neowsapp.com/rest/v1/neo/3761144?api_key=iIulBulltgU6a56xZRHN4H3l9WmuAYTsLGpBGhQ2"
    },
    "id": "3761144",
    "neo_reference_id": "3761144",
    "name": "(2016 TC93)",
    "designation": "2016 TC93",
    "nasa_jpl_url": "http://ssd.jpl.nasa.gov/sbdb.cgi?sstr=3761144",
    "absolute_magnitude_h": 22.8,
    "estimated_diameter": {
        "kilometers": {
            "estimated_diameter_min": 0.0732073989,
            "estimated_diameter_max": 0.1636967205
        },
        "meters": {
            "estimated_diameter_min": 73.2073989347,
            "estimated_diameter_max": 163.696720474
        },
        "miles": {
            "estimated_diameter_min": 0.0454889547,
            "estimated_diameter_max": 0.1017163949
        },
        "feet": {
            "estimated_diameter_min": 240.181762721,
            "estimated_diameter_max": 537.0627483999
        }
    },
    "is_potentially_hazardous_asteroid": false,
    "close_approach_data": [
        {
            "close_approach_date": "1965-10-28",
            "close_approach_date_full": "1965-Oct-28 05:24",
            "epoch_date_close_approach": -131826960000,
            "relative_velocity": {
                "kilometers_per_second": "4.8000248454",
                "kilometers_per_hour": "17280.089443319",
                "miles_per_hour": "10737.1755766001"
            },
            "miss_distance": {
                "astronomical": "0.2132997005",
                "lunar": "82.9735834945",
                "kilometers": "31909180.866437935",
                "miles": "19827445.579536103"
            },
            "orbiting_body": "Earth"
        },
        {
            "close_approach_date": "2008-11-18",
            "close_approach_date_full": "2008-Nov-18 04:16",
            "epoch_date_close_approach": 1226981760000,
            "relative_velocity": {
                "kilometers_per_second": "4.8934297958",
                "kilometers_per_hour": "17616.3472647015",
                "miles_per_hour": "10946.1131101141"
            },
            "miss_distance": {
                "astronomical": "0.3638771949",
                "lunar": "141.5482288161",
                "kilometers": "54435253.298614863",
                "miles": "33824497.9369485894"
            },
            "orbiting_body": "Earth"
        },
        {
            "close_approach_date": "2016-10-29",
            "close_approach_date_full": "2016-Oct-29 17:25",
            "epoch_date_close_approach": 1477761900000,
            "relative_velocity": {
                "kilometers_per_second": "4.811961952",
                "kilometers_per_hour": "17323.0630272964",
                "miles_per_hour": "10763.8776904887"
            },
            "miss_distance": {
                "astronomical": "0.2099758384",
                "lunar": "81.6806011376",
                "kilometers": "31411938.176104208",
                "miles": "19518473.2989977504"
            },
            "orbiting_body": "Earth"
        },
        {
            "close_approach_date": "2024-10-08",
            "close_approach_date_full": "2024-Oct-08 13:22",
            "epoch_date_close_approach": 1728393720000,
            "relative_velocity": {
                "kilometers_per_second": "4.5387236012",
                "kilometers_per_hour": "16339.4049644622",
                "miles_per_hour": "10152.6708236126"
            },
            "miss_distance": {
                "astronomical": "0.3827033544",
                "lunar": "148.8716048616",
                "kilometers": "57251606.660095128",
                "miles": "35574498.7671556464"
            },
            "orbiting_body": "Earth"
        },
        {
            "close_approach_date": "2067-10-31",
            "close_approach_date_full": "2067-Oct-31 05:06",
            "epoch_date_close_approach": 3087263160000,
            "relative_velocity": {
                "kilometers_per_second": "4.8000761417",
                "kilometers_per_hour": "17280.2741102016",
                "miles_per_hour": "10737.2903214195"
            },
            "miss_distance": {
                "astronomical": "0.2110911047",
                "lunar": "82.1144397283",
                "kilometers": "31578779.639066989",
                "miles": "19622143.7768188882"
            },
            "orbiting_body": "Earth"
        }
    ],
    "orbital_data": {
        "orbit_id": "16",
        "orbit_determination_date": "2017-04-06 08:23:00",
        "first_observation_date": "2016-10-12",
        "last_observation_date": "2016-12-22",
        "data_arc_in_days": 71,
        "observations_used": 79,
        "orbit_uncertainty": "5",
        "minimum_orbit_intersection": ".210327",
        "jupiter_tisserand_invariant": "3.810",
        "epoch_osculation": "2459000.5",
        "eccentricity": ".3794348967470231",
        "semi_major_axis": "1.930853975887673",
        "inclination": "8.313413365783489",
        "ascending_node_longitude": "205.8946804523665",
        "orbital_period": "979.9920961226437",
        "perihelion_distance": "1.198220596913155",
        "perihelion_argument": "197.9124448078887",
        "aphelion_distance": "2.663487354862191",
        "perihelion_time": "2458680.568822681960",
        "mean_anomaly": "117.5266864806228",
        "mean_motion": ".3673499015189474",
        "equinox": "J2000",
        "orbit_class": {
            "orbit_class_type": "AMO",
            "orbit_class_description": "Near-Earth asteroid orbits similar to that of 1221 Amor",
            "orbit_class_range": "1.017 AU < q (perihelion) < 1.3 AU"
        }
    },
    "is_sentry_object": false
}